[{"OBJECT_NAME":"JILIN-1 GAOFEN 3A","OBJECT_ID":"2019-032C","EPOCH":"2026-03-09T17:53:24.364896","MEAN_MOTION":15.3027131,"ECCENTRICITY":0.00026181,"INCLINATION":44.9746,"RA_OF_ASC_NODE":183.2861,"ARG_OF_PERICENTER":111.29,"MEAN_ANOMALY":248.8263,"EPHEMERIS_TYPE":0,"CLASSIFICATION_TYPE":"U","NORAD_CAT_ID":44312,"ELEMENT_SET_NO":999,"REV_AT_EPOCH":37259,"BSTAR":0.00055381133,"MEAN_MOTION_DOT":0.00016264,"MEAN_MOTION_DDOT":0},{"OBJECT_NAME":"STARLINK-35395","OBJECT_ID":"2025-232K","EPOCH":"2026-03-09T11:20:02.871744","MEAN_MOTION":15.30200354,"ECCENTRICITY":0.00013586,"INCLINATION":53.159,"RA_OF_ASC_NODE":104.8238,"ARG_OF_PERICENTER":82.1646,"MEAN_ANOMALY":277.9509,"EPHEMERIS_TYPE":0,"CLASSIFICATION_TYPE":"U","NORAD_CAT_ID":66014,"ELEMENT_SET_NO":999,"REV_AT_EPOCH":2340,"BSTAR":0.0011211953,"MEAN_MOTION_DOT":0.00032995,"MEAN_MOTION_DDOT":0}]
